SAR-LUPE 2              
1 31797U 07030A   26188.85451196  .00006772  00000+0  11067-3 0  9990
2 31797  98.1051 295.9015 0003659 210.3447 149.7593 15.52951494 60142
SARAL                   
1 39086U 13009A   26188.78046958  .00000065  00000+0  39936-4 0  9995
2 39086  98.5555  15.0872 0001253 187.5932 172.5233 14.32894453698553
SAOCOM 1A               
1 43641U 18076A   26188.86175579  .00000219  00000+0  34061-4 0  9992
2 43641  97.8890  15.3098 0001497  80.4356 279.7026 14.82163616419166
SAUDISAT 5A             
1 43831U 18102A   26188.85673030  .00003901  00000+0  14409-3 0  9991
2 43831  97.3056 250.0407 0010985  66.5935 293.6458 15.28270411418838
SAUDISAT 5B             
1 43833U 18102C   26188.87217404  .00003568  00000+0  13102-3 0  9992
2 43833  97.3164 253.1630 0011742  68.1354 292.1134 15.28515971418958
RISAT-2B                
1 44233U 19028A   26188.76392199  .00002055  00000+0  16083-3 0  9999
2 44233  36.9961 232.0406 0005221 214.6254 145.4149 15.01776395390928
RISAT-2BR1              
1 44857U 19089F   26188.83237360  .00002342  00000+0  18216-3 0  9993
2 44857  36.9617 349.0983 0012712 335.7146  24.2996 15.01781324360306
SAOCOM 1B               
1 46265U 20059A   26188.82548600  .00000944  00000+0  12513-3 0  9998
2 46265  97.8896  14.3700 0001612  80.7943 279.3453 14.82157633316540
RISAT-2BR2              
1 46905U 20081A   26188.89651203  .00002579  00000+0  20307-3 0  9991
2 46905  36.8983 101.3144 0014449 322.1236  37.8488 15.01151158310581
RESURS-P 4              
1 59371U 24061A   26188.83531693  .00002267  00000+0  75234-4 0  9992
2 59371  97.2754 136.3763 0003203 100.5700 259.5903 15.32251401126928
